NORAD_CAT_ID,OBJECT_NAME,OBJECT_TYPE,EPOCH,MEAN_MOTION,ECCENTRICITY,INCLINATION,RA_OF_ASC_NODE,ARG_OF_PERICENTER,MEAN_ANOMALY,BSTAR,MEAN_MOTION_DOT,MEAN_MOTION_DDOT,TLE_LINE0,TLE_LINE1,TLE_LINE2,SEMIMAJOR_AXIS,PERIOD,APOGEE,PERIGEE,DECAYED
52568.0,STARLINK-3930,PAYLOAD,2023-11-05 11:12:31,15.08858477,0.0001595,53.2165,358.3693,90.1749,269.9426,0.00041417,6.313e-05,0.0,0 STARLINK-3930,1 52568U 22051AM  23309.46703517  .00006313  00000-0  41417-3 0  9999,2 52568  53.2165 358.3693 0001595  90.1749 269.9426 15.08858477 82479,6917.824,95.436,540.792,538.586,0.0
52568.0,STARLINK-3930,PAYLOAD,2023-11-05 20:44:50,15.08853167,0.0001839,53.2186,356.5839,79.7116,280.4084,0.00034014,5.131e-05,0.0,0 STARLINK-3930,1 52568U 22051AM  23309.86447751  .00005131  00000-0  34014-3 0  9990,2 52568  53.2186 356.5839 0001839  79.7116 280.4084 15.08853167 82532,6917.84,95.437,540.977,538.433,0.0
52568.0,STARLINK-3930,PAYLOAD,2023-11-06 03:06:23,15.08857135,0.0001826,53.2165,355.3943,80.7261,279.3938,0.00038126,5.788e-05,0.0,0 STARLINK-3930,1 52568U 22051AM  23310.12943494  .00005788  00000-0  38126-3 0  9992,2 52568  53.2165 355.3943 0001826  80.7261 279.3938 15.08857135 82647,6917.828,95.436,540.956,538.43,0.0
52568.0,STARLINK-3930,PAYLOAD,2023-11-06 09:27:55,15.08871867,0.0001711,53.216,354.2048,83.1665,276.9522,0.0010146,0.0001591,0.0,0 STARLINK-3930,1 52568U 22051AM  23310.39438878  .00015910  00000-0  10146-2 0  9995,2 52568  53.2160 354.2048 0001711  83.1665 276.9522 15.08871867 82688,6917.783,95.436,540.832,538.464,0.0
52568.0,STARLINK-3930,PAYLOAD,2023-11-06 20:35:38,15.08807355,0.0001988,53.2176,352.125,76.3634,283.7579,-0.00067281,-0.00010971,0.0,0 STARLINK-3930,1 52568U 22051AM  23310.85808797 -.00010971  00000-0 -67281-3 0  9994,2 52568  53.2176 352.1250 0001988  76.3634 283.7579 15.08807355 82682,6917.98,95.44,541.22,538.47,0.0
52568.0,STARLINK-3930,PAYLOAD,2023-11-07 02:57:12,15.08795489,0.0002433,53.2186,350.9338,89.4798,270.6473,-0.00050529,-8.312e-05,0.0,0 STARLINK-3930,1 52568U 22051AM  23311.12305861 -.00008312  00000-0 -50529-3 0  9992,2 52568  53.2186 350.9338 0002433  89.4798 270.6473 15.08795489 82792,6918.016,95.44,541.565,538.198,0.0
52568.0,STARLINK-3930,PAYLOAD,2023-11-07 12:29:32,15.08792714,0.00014,53.2173,349.1475,94.6692,265.446,-0.00016924,-2.977e-05,0.0,0 STARLINK-3930,1 52568U 22051AM  23311.52051208 -.00002977  00000-0 -16924-3 0  9991,2 52568  53.2173 349.1475 0001400  94.6692 265.4460 15.08792714 82789,6918.025,95.441,540.858,538.921,0.0
52568.0,STARLINK-3930,PAYLOAD,2023-11-08 02:48:00,15.088239,8.62e-05,53.2187,346.4759,68.9,291.2084,0.00093162,0.00014563,0.0,0 STARLINK-3930,1 52568U 22051AM  23312.11667656  .00014563  00000-0  93162-3 0  9998,2 52568  53.2187 346.4759 0000862  68.9000 291.2084 15.08823900 82946,6917.93,95.439,540.391,539.198,0.0
52568.0,STARLINK-3930,PAYLOAD,2023-11-08 09:09:33,15.08857531,0.0001671,53.218,345.2856,96.4608,263.6574,0.0015081,0.00023806,0.0,0 STARLINK-3930,1 52568U 22051AM  23312.38163233  .00023806  00000-0  15081-2 0  9992,2 52568  53.2180 345.2856 0001671  96.4608 263.6574 15.08857531 82981,6917.827,95.436,540.848,538.536,0.0
52568.0,STARLINK-3930,PAYLOAD,2023-11-09 09:00:18,15.08875694,0.0001836,53.2184,340.8264,117.5651,242.5528,0.00048481,7.444e-05,0.0,0 STARLINK-3930,1 52568U 22051AM  23313.37521316  .00007444  00000-0  48481-3 0  9993,2 52568  53.2184 340.8264 0001836 117.5651 242.5528 15.08875694 83138,6917.771,95.435,540.906,538.366,0.0
52568.0,STARLINK-3930,PAYLOAD,2023-11-09 18:32:36,15.08862457,0.0001626,53.2184,339.0411,99.6018,260.5158,0.00033597,5.066e-05,0.0,0 STARLINK-3930,1 52568U 22051AM  23313.77264988  .00005066  00000-0  33597-3 0  9996,2 52568  53.2184 339.0411 0001626  99.6018 260.5158 15.08862457 83194,6917.812,95.436,540.802,538.552,0.0
52568.0,STARLINK-3930,PAYLOAD,2023-11-10 10:26:28,15.08849198,0.0001591,53.2182,336.067,94.3776,265.7397,-0.00012297,-2.245e-05,0.0,0 STARLINK-3930,1 52568U 22051AM  23314.43505014 -.00002245  00000-0 -12297-3 0  9990,2 52568  53.2182 336.0670 0001591  94.3776 265.7397 15.08849198 83290,6917.852,95.437,540.818,538.617,0.0
52568.0,STARLINK-3930,PAYLOAD,2023-11-10 18:23:24,15.08843018,0.0001529,53.2178,334.5798,92.3047,267.812,-0.00014213,-2.549e-05,0.0,0 STARLINK-3930,1 52568U 22051AM  23314.76625163 -.00002549  00000-0 -14213-3 0  9991,2 52568  53.2178 334.5798 0001529  92.3047 267.8120 15.08843018 83279,6917.871,95.437,540.794,538.678,0.0
52568.0,STARLINK-3930,PAYLOAD,2023-11-11 00:44:56,15.08840944,0.0001421,53.2169,333.389,90.7916,269.3239,-0.0002203,-3.792e-05,0.0,0 STARLINK-3930,1 52568U 22051AM  23315.03121235 -.00003792  00000-0 -22030-3 0  9990,2 52568  53.2169 333.3890 0001421  90.7916 269.3239 15.08840944 83382,6917.878,95.437,540.726,538.759,0.0
52568.0,STARLINK-3930,PAYLOAD,2023-11-11 08:41:52,15.08851468,0.0001477,53.217,331.9028,93.3658,266.7504,-2.6923e-05,-7.17e-06,0.0,0 STARLINK-3930,1 52568U 22051AM  23315.36240856 -.00000717  00000-0 -26923-4 0  9997,2 52568  53.2170 331.9028 0001477  93.3658 266.7504 15.08851468 83439,6917.845,95.437,540.732,538.689,0.0
52568.0,STARLINK-3930,PAYLOAD,2023-11-12 00:35:44,15.0883877,0.0001907,53.2167,328.9289,85.1168,275.0042,0.00020305,2.945e-05,0.0,0 STARLINK-3930,1 52568U 22051AM  23316.02481572  .00002945  00000-0  20305-3 0  9993,2 52568  53.2167 328.9289 0001907  85.1168 275.0042 15.08838770 83535,6917.884,95.438,541.068,538.43,0.0
52568.0,STARLINK-3930,PAYLOAD,2023-11-12 08:32:39,15.08843629,0.0001549,53.2169,327.4421,87.3446,272.7724,0.00010321,1.355e-05,0.0,0 STARLINK-3930,1 52568U 22051AM  23316.35601280  .00001355  00000-0  10321-3 0  9990,2 52568  53.2169 327.4421 0001549  87.3446 272.7724 15.08843629 83512,6917.869,95.437,540.806,538.663,0.0
52568.0,STARLINK-3930,PAYLOAD,2023-11-12 18:04:58,15.08845455,0.0001625,53.217,325.6577,85.1897,274.928,0.00011633,1.564e-05,0.0,0 STARLINK-3930,1 52568U 22051AM  23316.75345221  .00001564  00000-0  11633-3 0  9993,2 52568  53.2170 325.6577 0001625  85.1897 274.9280 15.08845455 83573,6917.864,95.437,540.853,538.605,0.0
52568.0,STARLINK-3930,PAYLOAD,2023-11-13 09:58:49,15.0885398,0.0001558,53.2162,322.6829,89.4096,270.7075,0.00027708,4.126e-05,0.0,0 STARLINK-3930,1 52568U 22051AM  23317.41584644  .00004126  00000-0  27708-3 0  9998,2 52568  53.2162 322.6829 0001558  89.4096 270.7075 15.08853980 83741,6917.838,95.437,540.78,538.625,0.0
52568.0,STARLINK-3930,PAYLOAD,2023-11-13 17:55:45,15.0884101,0.0001638,53.2169,321.1951,89.2217,270.8963,7.6548e-05,9.3e-06,0.0,0 STARLINK-3930,1 52568U 22051AM  23317.74705296  .00000930  00000-0  76548-4 0  9998,2 52568  53.2169 321.1951 0001638  89.2217 270.8963 15.08841010 83793,6917.877,95.437,540.875,538.609,0.0
52568.0,STARLINK-3930,PAYLOAD,2023-11-14 09:49:36,15.08843872,0.0001692,53.2169,318.2226,86.5464,273.5722,0.00011224,1.499e-05,0.0,0 STARLINK-3930,1 52568U 22051AM  23318.40945217  .00001499  00000-0  11224-3 0  9991,2 52568  53.2169 318.2226 0001692  86.5464 273.5722 15.08843872 83824,6917.869,95.437,540.904,538.563,0.0
52568.0,STARLINK-3930,PAYLOAD,2023-11-14 17:46:32,15.08840255,0.0001677,53.2166,316.7352,87.7323,272.3861,7.4156e-05,8.92e-06,0.0,0 STARLINK-3930,1 52568U 22051AM  23318.74065420  .00000892  00000-0  74156-4 0  9997,2 52568  53.2166 316.7352 0001677  87.7323 272.3861 15.08840255 83872,6917.88,95.438,540.905,538.584,0.0
52568.0,STARLINK-3930,PAYLOAD,2023-11-15 03:18:51,15.08840376,0.0001591,53.217,314.9504,90.2855,269.832,0.00013073,1.793e-05,0.0,0 STARLINK-3930,1 52568U 22051AM  23319.13809423  .00001793  00000-0  13073-3 0  9991,2 52568  53.2170 314.9504 0001591  90.2855 269.8320 15.08840376 84001,6917.879,95.438,540.845,538.644,0.0
52568.0,STARLINK-3930,PAYLOAD,2023-11-15 09:40:23,15.08845577,0.0001699,53.2172,313.761,91.4436,268.6751,0.00010839,1.438e-05,0.0,0 STARLINK-3930,1 52568U 22051AM  23319.40305137  .00001438  00000-0  10839-3 0  9997,2 52568  53.2172 313.7610 0001699  91.4436 268.6751 15.08845577 83973,6917.863,95.437,540.904,538.553,0.0
52568.0,STARLINK-3930,PAYLOAD,2023-11-16 09:31:11,15.08836663,0.0001826,53.218,309.2985,96.393,263.727,0.00022319,3.265e-05,0.0,0 STARLINK-3930,1 52568U 22051AM  23320.39665669  .00003265  00000-0  22319-3 0  9992,2 52568  53.2180 309.2985 0001826  96.3930 263.7270 15.08836663 84195,6917.891,95.438,541.019,538.492,0.0
52568.0,STARLINK-3930,PAYLOAD,2023-11-16 15:52:43,15.08832988,0.0001794,53.2181,308.1094,93.8853,266.2344,0.00024459,3.606e-05,0.0,0 STARLINK-3930,1 52568U 22051AM  23320.66161901  .00003606  00000-0  24459-3 0  9998,2 52568  53.2181 308.1094 0001794  93.8853 266.2344 15.08832988 84168,6917.902,95.438,541.008,538.526,0.0
52568.0,STARLINK-3930,PAYLOAD,2023-11-17 06:11:11,15.08842345,0.0001604,53.2176,305.4366,89.5224,270.5952,5.699e-05,6.19e-06,0.0,0 STARLINK-3930,1 52568U 22051AM  23321.25777522  .00000619  00000-0  56990-4 0  9993,2 52568  53.2176 305.4366 0001604  89.5224 270.5952 15.08842345 84259,6917.873,95.437,540.848,538.629,0.0
52568.0,STARLINK-3930,PAYLOAD,2023-11-17 15:43:30,15.08840588,0.0001568,53.2173,303.6525,89.2823,270.8349,2.5804e-05,1.23e-06,0.0,0 STARLINK-3930,1 52568U 22051AM  23321.65521676  .00000123  00000-0  25804-4 0  9994,2 52568  53.2173 303.6525 0001568  89.2823 270.8349 15.08840588 84388,6917.879,95.438,540.828,538.659,0.0
52568.0,STARLINK-3930,PAYLOAD,2023-11-18 04:26:36,15.08836233,0.0001675,53.2176,301.2741,109.3144,250.803,-3.6402e-05,-8.67e-06,0.0,0 STARLINK-3930,1 52568U 22051AM  23322.18514361 -.00000867  00000-0 -36402-4 0  9999,2 52568  53.2176 301.2741 0001675 109.3144 250.8030 15.08836233 84460,6917.892,95.438,540.916,538.598,0.0
52568.0,STARLINK-3930,PAYLOAD,2023-11-18 07:37:22,15.08840648,0.0001969,53.2184,300.6797,120.3397,239.779,-4.2083e-05,-9.58e-06,0.0,0 STARLINK-3930,1 52568U 22051AM  23322.31762108 -.00000958  00000-0 -42083-4 0  9991,2 52568  53.2184 300.6797 0001969 120.3397 239.7790 15.08840648 84411,6917.878,95.438,541.106,538.381,0.0
